#aV2021 10  2  0  0  0.00000000     288 DD+AD WGS84 FIT  NGA
## 2177 518400.00000000   300.00000000 59489 0.0000000000000
+   32     1  2  3  4  5  6  7  8  9 10 11 12 13 14 15 16 17
+         18 19 20 21 22 23 24 25 26 27 28 29 30 31 32  0  0
+          0  0  0  0  0  0  0  0  0  0  0  0  0  0  0  0  0
+          0  0  0  0  0  0  0  0  0  0  0  0  0  0  0  0  0
+          0  0  0  0  0  0  0  0  0  0  0  0  0  0  0  0  0
++         2  2  2  2  2  2  2  2  2  2  2  2  2  2  2  2  2
++         2  2  2  2  2  2  2  2  2  2  2  2  2  2  2  0  0
++         0  0  0  0  0  0  0  0  0  0  0  0  0  0  0  0  0
++         0  0  0  0  0  0  0  0  0  0  0  0  0  0  0  0  0
++         0  0  0  0  0  0  0  0  0  0  0  0  0  0  0  0  0
%c cc cc ccc ccc cccc cccc cccc cccc ccccc ccccc ccccc ccccc
%c cc cc ccc ccc cccc cccc cccc cccc ccccc ccccc ccccc ccccc
%f  0.0000000  0.000000000  0.00000000000  0.000000000000000
%f  0.0000000  0.000000000  0.00000000000  0.000000000000000
%i    0    0    0    0      0      0      0      0         0
%i    0    0    0    0      0      0      0      0         0
/*      NGA, ST. LOUIS,MO.                                  
/*   EPHEMERIS COMPUTED FROM 2 DAYS OF DATA                 
/*   EPOCHA v7 SMOOTHER                                     
/*   G2139 IERS2010 SATIGS SATAPC                           
*  2021 10  2 23 35  0.00000000
P  1 -22504.354947 -14439.112294    327.485108    550.431456                    
V  1    331.456328  -1867.597638 -32071.603707     -0.108657                    
P  2   6552.431294  18272.129987  18750.725311   -635.488799                    
V  2 -20446.371879  -9466.010062  17048.747100     -0.019329                    
P  3 -12497.455902 -13476.142463  19108.753664   -310.692717                    
V  3   2274.912836 -24346.212552 -15495.034738     -0.138817                    
P  4 -19561.351599  -4211.149687  17502.883225   -204.027894                    
V  4  19325.390271 -11034.027179  18878.637169      0.003043                    
P  5   6622.382256  23840.296599  -9602.118432    -56.377531                    
V  5  -2782.674458  11997.444266  28514.729693     -0.012567                    
P  6  -7606.960231  12591.521897  22172.852038     86.408383                    
V  6 -23545.246844 -15037.895956    516.576795      0.078703                    
P  7 -22659.196343  -3190.878508 -13520.220457    255.867982                    
V  7 -13594.125843 -11415.989440  24314.404785      0.065736                    
P  8  -9919.134305 -11687.783203 -21724.992189    -38.679147                    
V  8  24093.397723 -13285.066710  -3546.962308     -0.014284                    
P  9 -24316.937479   6196.508003   8672.835616   -361.584288                    
V  9   8442.011277  -7743.203731  28940.519459     -0.002535                    
P 10  11676.290538 -17445.162626 -15978.149527   -215.707342                    
V 10   1073.184783  20665.081024 -21894.660548     -0.079939                    
P 11   4232.760153  18806.589893  18265.694081     20.519632                    
V 11 -19714.909003 -12350.118889  17258.496666      0.010609                    
P 12  10974.507763  15282.699992  18550.151166   -105.948236                    
V 12  -4062.553461  23689.342276 -16756.917120     -0.054681                    
P 13   1192.386415  15434.184570 -21713.379576    193.990750                    
V 13 -25752.635379   8815.770377   5032.503506      0.054614                    
P 14 -12647.320398  17261.295509 -15698.701286    -11.067268                    
V 14   -368.816293 -20078.133529 -21832.618180     -0.077752                    
P 15  11988.686815  11113.535323 -21357.546043   -116.789847                    
V 15 -21539.508840  15105.678061  -3968.681593      0.027645                    
P 16   -902.263874 -25588.037307  -6336.184250   -400.596507                    
V 16   3731.282516  -7382.008111  30916.710034     -0.063139                    
P 17 -22398.648684  13558.149886   4929.346957    513.497764                    
V 17  -6035.529000    436.905842 -31390.424001      0.056269                    
P 18  21540.461192   1561.406542 -15533.334560    315.236640                    
V 18  15382.682697  12346.683498  22494.143226     -0.047572                    
P 19 -17251.157939  15645.326419  12346.840229     60.770456                    
V 19 -15763.538095   4001.555223 -26677.956158      0.049930                    
P 20   1138.992052  26579.412635   2290.966817    518.835519                    
V 20  -3537.787694  -2568.881786  30927.715054     -0.001859                    
P 21 -19992.522474 -16212.600072  -6920.792969    145.727865                    
V 21   9589.402628   2372.651125 -29711.160347      0.018880                    
P 22 -11280.547098 -20014.581384  13674.262872   -498.704478                    
V 22   1558.907696 -17184.753786 -23966.562749      0.092355                    
P 23  14845.947074  -5630.412100 -21303.791774     49.957003                    
V 23    158.567131  27001.217198  -7107.339208     -0.047476                    
P 24  21481.540846  15402.183165  -4567.874511    246.750117                    
V 24  -6283.374673    215.646416 -30205.094225      0.071238                    
P 25  14852.337177   4118.764178  21392.722354    218.099169                    
V 25  -1407.124910  27730.218489  -4044.711073      0.062216                    
P 26   5202.903903 -24841.598589   7251.174845    140.722357                    
V 26   3556.902632   9373.891188  29604.193187      0.040982                    
P 27   1077.077058 -16510.614785 -20870.917664   -201.059419                    
V 27  23612.797947 -11251.811678  10569.406497     -0.050991                    
P 28  -9765.557443  22641.101678  -9583.570723    489.892937                    
V 28   -437.886436 -13068.132650 -28600.866537     -0.071490                    
P 29  23910.091331  -1983.199932  11421.127507   -420.563955                    
V 29 -12639.838565   7345.322660  27568.458379     -0.055043                    
P 30 -15799.161585   7200.251625 -20087.101483   -478.704282                    
V 30 -20727.324183 -15220.108074  10573.246562     -0.036422                    
P 31   6267.457565 -14082.521140  21494.967827   -142.917868                    
V 31  23186.843835  14963.777261   3490.872738     -0.019940                    
P 32  19589.813168 -16243.292793   7392.766522     -6.178254                    
V 32   9546.855573  -1809.257796 -29906.720634     -0.037969                    
EOF
